{
  "type": "FeatureCollection",
  "features": [
    {
      "type": "Feature",
      "properties": {
        "norad_id": 66926,
        "name": "STARLINK-35942",
        "group": "last-30-days",
        "lat": -51.18906843641964,
        "lon": -87.11620635585038,
        "alt_km": 407.7524985357495,
        "timestamp": "2025-12-26T13:39:17.666780+00:00",
        "meta_object_name": "STARLINK-35942",
        "meta_object_id": "2025-286B",
        "meta_epoch": "2025-12-26T06:00:02.999808",
        "meta_mean_motion": 15.56509977,
        "meta_eccentricity": 0.00014726,
        "meta_inclination": 53.1589,
        "meta_ra_of_asc_node": 343.1951,
        "meta_arg_of_pericenter": 90.1321,
        "meta_mean_anomaly": 205.7741,
        "meta_ephemeris_type": 0,
        "meta_classification_type": "U",
        "meta_norad_cat_id": 66926,
        "meta_element_set_no": 999,
        "meta_rev_at_epoch": 416,
        "meta_bstar": -0.031903772,
        "meta_mean_motion_dot": -0.02055121,
        "meta_mean_motion_ddot": 0,
        "tle_line1": "1 66926U 25286B   25360.25003472 -.02055121  00000+0 -31904-1 0  9996",
        "tle_line2": "2 66926  53.1589 343.1951 0001472  90.1321 205.7741 15.56509977  4169"
      },
      "geometry": {
        "type": "Point",
        "coordinates": [
          -87.11620635585038,
          -51.18906843641964
        ]
      }
    },
    {
      "type": "Feature",
      "properties": {
        "norad_id": 66927,
        "name": "STARLINK-35943",
        "group": "last-30-days",
        "lat": -50.59805925024282,
        "lon": -84.23155098523719,
        "alt_km": 407.6638051025193,
        "timestamp": "2025-12-26T13:39:17.666790+00:00",
        "meta_object_name": "STARLINK-35943",
        "meta_object_id": "2025-286C",
        "meta_epoch": "2025-12-26T06:00:02.999808",
        "meta_mean_motion": 15.56513792,
        "meta_eccentricity": 0.000136,
        "meta_inclination": 53.1588,
        "meta_ra_of_asc_node": 343.1906,
        "meta_arg_of_pericenter": 92.2426,
        "meta_mean_anomaly": 205.5813,
        "meta_ephemeris_type": 0,
        "meta_classification_type": "U",
        "meta_norad_cat_id": 66927,
        "meta_element_set_no": 999,
        "meta_rev_at_epoch": 416,
        "meta_bstar": -0.032021949,
        "meta_mean_motion_dot": -0.02062105,
        "meta_mean_motion_ddot": 0,
        "tle_line1": "1 66927U 25286C   25360.25003472 -.02062105  00000+0 -32022-1 0  9999",
        "tle_line2": "2 66927  53.1588 343.1906 0001360  92.2426 205.5813 15.56513792  4162"
      },
      "geometry": {
        "type": "Point",
        "coordinates": [
          -84.23155098523719,
          -50.59805925024282
        ]
      }
    },
    {
      "type": "Feature",
      "properties": {
        "norad_id": 66928,
        "name": "STARLINK-35944",
        "group": "last-30-days",
        "lat": -51.70593594945914,
        "lon": -90.06352303204055,
        "alt_km": 407.70007539145354,
        "timestamp": "2025-12-26T13:39:17.666800+00:00",
        "meta_object_name": "STARLINK-35944",
        "meta_object_id": "2025-286D",
        "meta_epoch": "2025-12-26T06:00:02.999808",
        "meta_mean_motion": 15.5651629,
        "meta_eccentricity": 0.0001352,
        "meta_inclination": 53.1593,
        "meta_ra_of_asc_node": 343.1978,
        "meta_arg_of_pericenter": 89.4039,
        "meta_mean_anomaly": 204.587,
        "meta_ephemeris_type": 0,
        "meta_classification_type": "U",
        "meta_norad_cat_id": 66928,
        "meta_element_set_no": 999,
        "meta_rev_at_epoch": 416,
        "meta_bstar": -0.032123643,
        "meta_mean_motion_dot": -0.02068114,
        "meta_mean_motion_ddot": 0,
        "tle_line1": "1 66928U 25286D   25360.25003472 -.02068114  00000+0 -32124-1 0  9999",
        "tle_line2": "2 66928  53.1593 343.1978 0001352  89.4039 204.5870 15.56516290  4165"
      },
      "geometry": {
        "type": "Point",
        "coordinates": [
          -90.06352303204055,
          -51.70593594945914
        ]
      }
    },
    {
      "type": "Feature",
      "properties": {
        "norad_id": 66929,
        "name": "STARLINK-36169",
        "group": "last-30-days",
        "lat": -49.93974124463243,
        "lon": -81.43019638001688,
        "alt_km": 407.75398777005194,
        "timestamp": "2025-12-26T13:39:17.666811+00:00",
        "meta_object_name": "STARLINK-36169",
        "meta_object_id": "2025-286E",
        "meta_epoch": "2025-12-26T06:00:02.999808",
        "meta_mean_motion": 15.56515337,
        "meta_eccentricity": 0.0001534,
        "meta_inclination": 53.1589,
        "meta_ra_of_asc_node": 343.187,
        "meta_arg_of_pericenter": 95.3971,
        "meta_mean_anomaly": 204.337,
        "meta_ephemeris_type": 0,
        "meta_classification_type": "U",
        "meta_norad_cat_id": 66929,
        "meta_element_set_no": 999,
        "meta_rev_at_epoch": 416,
        "meta_bstar": -0.03196153,
        "meta_mean_motion_dot": -0.02058852,
        "meta_mean_motion_ddot": 0,
        "tle_line1": "1 66929U 25286E   25360.25003472 -.02058852  00000+0 -31962-1 0  9997",
        "tle_line2": "2 66929  53.1589 343.1870 0001534  95.3971 204.3370 15.56515337  4169"
      },
      "geometry": {
        "type": "Point",
        "coordinates": [
          -81.43019638001688,
          -49.93974124463243
        ]
      }
    },
    {
      "type": "Feature",
      "properties": {
        "norad_id": 66930,
        "name": "STARLINK-36206",
        "group": "last-30-days",
        "lat": -49.213907638763985,
        "lon": -78.70319212651849,
        "alt_km": 407.5797425232686,
        "timestamp": "2025-12-26T13:39:17.666822+00:00",
        "meta_object_name": "STARLINK-36206",
        "meta_object_id": "2025-286F",
        "meta_epoch": "2025-12-26T06:00:02.999808",
        "meta_mean_motion": 15.56511936,
        "meta_eccentricity": 0.0001325,
        "meta_inclination": 53.1589,
        "meta_ra_of_asc_node": 343.1825,
        "meta_arg_of_pericenter": 94.4725,
        "meta_mean_anomaly": 207.1811,
        "meta_ephemeris_type": 0,
        "meta_classification_type": "U",
        "meta_norad_cat_id": 66930,
        "meta_element_set_no": 999,
        "meta_rev_at_epoch": 416,
        "meta_bstar": -0.031882726,
        "meta_mean_motion_dot": -0.0205395,
        "meta_mean_motion_ddot": 0,
        "tle_line1": "1 66930U 25286F   25360.25003472 -.02053950  00000+0 -31883-1 0  9995",
        "tle_line2": "2 66930  53.1589 343.1825 0001325  94.4725 207.1811 15.56511936  4168"
      },
      "geometry": {
        "type": "Point",
        "coordinates": [
          -78.70319212651849,
          -49.213907638763985
        ]
      }
    },
    {
      "type": "Feature",
      "properties": {
        "norad_id": 66931,
        "name": "STARLINK-36130",
        "group": "last-30-days",
        "lat": -48.42684150790507,
        "lon": -76.0610215046178,
        "alt_km": 407.67343393828196,
        "timestamp": "2025-12-26T13:39:17.666832+00:00",
        "meta_object_name": "STARLINK-36130",
        "meta_object_id": "2025-286G",
        "meta_epoch": "2025-12-26T06:00:02.999808",
        "meta_mean_motion": 15.565135,
        "meta_eccentricity": 0.00015079,
        "meta_inclination": 53.1591,
        "meta_ra_of_asc_node": 343.1789,
        "meta_arg_of_pericenter": 94.0476,
        "meta_mean_anomaly": 209.5221,
        "meta_ephemeris_type": 0,
        "meta_classification_type": "U",
        "meta_norad_cat_id": 66931,
        "meta_element_set_no": 999,
        "meta_rev_at_epoch": 416,
        "meta_bstar": -0.031952527,
        "meta_mean_motion_dot": -0.0205819,
        "meta_mean_motion_ddot": 0,
        "tle_line1": "1 66931U 25286G   25360.25003472 -.02058190  00000+0 -31953-1 0  9995",
        "tle_line2": "2 66931  53.1591 343.1789 0001507  94.0476 209.5221 15.56513500  4162"
      },
      "geometry": {
        "type": "Point",
        "coordinates": [
          -76.0610215046178,
          -48.42684150790507
        ]
      }
    },
    {
      "type": "Feature",
      "properties": {
        "norad_id": 66932,
        "name": "STARLINK-36177",
        "group": "last-30-days",
        "lat": -47.57968381548713,
        "lon": -73.50026215041214,
        "alt_km": 407.518466855503,
        "timestamp": "2025-12-26T13:39:17.666842+00:00",
        "meta_object_name": "STARLINK-36177",
        "meta_object_id": "2025-286H",
        "meta_epoch": "2025-12-26T06:00:02.999808",
        "meta_mean_motion": 15.56510575,
        "meta_eccentricity": 0.00013337,
        "meta_inclination": 53.1592,
        "meta_ra_of_asc_node": 343.174,
        "meta_arg_of_pericenter": 94.39,
        "meta_mean_anomaly": 211.098,
        "meta_ephemeris_type": 0,
        "meta_classification_type": "U",
        "meta_norad_cat_id": 66932,
        "meta_element_set_no": 999,
        "meta_rev_at_epoch": 416,
        "meta_bstar": -0.031860407,
        "meta_mean_motion_dot": -0.02052577,
        "meta_mean_motion_ddot": 0,
        "tle_line1": "1 66932U 25286H   25360.25003472 -.02052577  00000+0 -31860-1 0  9996",
        "tle_line2": "2 66932  53.1592 343.1740 0001333  94.3900 211.0980 15.56510575  4162"
      },
      "geometry": {
        "type": "Point",
        "coordinates": [
          -73.50026215041214,
          -47.57968381548713
        ]
      }
    }
  ]
}